{"type":"FeatureCollection","features":[{"type":"Feature","geometry":{"type":"Polygon","coordinates":[[[13.379264,52.5147714],[13.3790899,52.5147434],[13.3789453,52.5147319],[13.378527,52.5147073],[13.3782951,52.5146904],[13.3778565,52.5146591],[13.3776831,52.51465],[13.3776505,52.5146478],[13.3776207,52.5146477],[13.3776031,52.5146501],[13.3775863,52.5146534],[13.3775676,52.5146622],[13.3775579,52.5146719],[13.3775588,52.5147121],[13.3775501,52.5147121],[13.3775315,52.5147122],[13.3775238,52.5147122],[13.3776383,52.5155963],[13.3776358,52.5156741],[13.3776286,52.5157191],[13.3775891,52.5157992],[13.3775217,52.5158703],[13.3774831,52.5159005],[13.3774009,52.5159506],[13.3774473,52.5159541],[13.3774597,52.5159546],[13.3774739,52.5159552],[13.3775701,52.5159592],[13.3776456,52.5159632],[13.3777713,52.5159698],[13.3778694,52.5159749],[13.377868,52.5159826],[13.3778771,52.5159833],[13.3780754,52.5159982],[13.3780954,52.5160142],[13.378094,52.5160218],[13.3781562,52.516026],[13.3781724,52.5160271],[13.3781887,52.5160282],[13.3782112,52.5160297],[13.3782931,52.5160352],[13.3783673,52.5160401],[13.3783852,52.5160413],[13.378389,52.5160153],[13.3784102,52.5159039],[13.3784184,52.5158943],[13.3784296,52.5158889],[13.3784474,52.5158862],[13.3792475,52.5159359],[13.3792485,52.5159293],[13.3792523,52.5159056],[13.3792564,52.5158802],[13.3792591,52.5158632],[13.3792608,52.5158523],[13.3792653,52.5158243],[13.3792588,52.514903],[13.3792614,52.514828],[13.3792621,52.5148067],[13.379264,52.5147714]]]},"properties":{"zone_type":"restricted","name":"no-fly","max_altitude_m_msl":null}}]}